{"type": "FeatureCollection", "features": [ {"type": "Feature", "properties": {"norad_id": 30860, "name": "FENGYUN 1C DEB", "group": "fengyun-1c-debris", "lat": -57.33873156424024, "lon": 85.10178146865198, "alt_km": 836.8506704353113, "timestamp": "2025-12-23T07:45:09.683489+00:00", "meta": {"OBJECT_NAME": "FENGYUN 1C DEB", "OBJECT_ID": "1999-025AWW", "EPOCH": "2025-12-22T21:55:17.540544", "MEAN_MOTION": 14.25566781, "ECCENTRICITY": 0.00402368, "INCLINATION": 98.9047, "RA_OF_ASC_NODE": 70.5293, "ARG_OF_PERICENTER": 159.2211, "MEAN_ANOMALY": 201.0614, "EPHEMERIS_TYPE": 0, "CLASSIFICATION_TYPE": "U", "NORAD_CAT_ID": 30860, "ELEMENT_SET_NO": 999, "REV_AT_EPOCH": 96661, "BSTAR": 0.001568422, "MEAN_MOTION_DOT": 3.699e-05, "MEAN_MOTION_DDOT": 0}, "tle": {"line1": "1 30860U 99025AWW 25356.91339746  .00003699  00000+0  15684-2 0  9997", "line2": "2 30860  98.9047  70.5293 0040236 159.2211 201.0614 14.25566781966615"}}, "geometry": {"type": "Point", "coordinates": [85.10178146865198, -57.33873156424024]}}, {"type": "Feature", "properties": {"norad_id": 30862, "name": "FENGYUN 1C DEB", "group": "fengyun-1c-debris", "lat": 51.771813149868905, "lon": 77.07478354511785, "alt_km": 736.3496626346396, "timestamp": "2025-12-23T07:45:09.683499+00:00", "meta": {"OBJECT_NAME": "FENGYUN 1C DEB", "OBJECT_ID": "1999-025AWY", "EPOCH": "2025-12-21T05:43:08.339808", "MEAN_MOTION": 14.43230431, "ECCENTRICITY": 0.0052107, "INCLINATION": 98.9568, "RA_OF_ASC_NODE": 86.4337, "ARG_OF_PERICENTER": 139.0646, "MEAN_ANOMALY": 248.8173, "EPHEMERIS_TYPE": 0, "CLASSIFICATION_TYPE": "U", "NORAD_CAT_ID": 30862, "ELEMENT_SET_NO": 999, "REV_AT_EPOCH": 96842, "BSTAR": 0.0022042, "MEAN_MOTION_DOT": 7.497e-05, "MEAN_MOTION_DDOT": 0}, "tle": {"line1": "1 30862U 99025AWY 25355.23829097  .00007497  00000+0  22042-2 0  9992", "line2": "2 30862  98.9568  86.4337 0052107 139.0646 248.8173 14.43230431968428"}}, "geometry": {"type": "Point", "coordinates": [77.07478354511785, 51.771813149868905]}}, {"type": "Feature", "properties": {"norad_id": 30863, "name": "FENGYUN 1C DEB", "group": "fengyun-1c-debris", "lat": 17.15492423526673, "lon": 8.732861581315536, "alt_km": 1170.4756721788062, "timestamp": "2025-12-23T07:45:09.683509+00:00", "meta": {"OBJECT_NAME": "FENGYUN 1C DEB", "OBJECT_ID": "1999-025AWZ", "EPOCH": "2025-12-21T07:26:52.161216", "MEAN_MOTION": 12.40539027, "ECCENTRICITY": 0.0877249, "INCLINATION": 99.1205, "RA_OF_ASC_NODE": 184.3542, "ARG_OF_PERICENTER": 232.3747, "MEAN_ANOMALY": 314.6544, "EPHEMERIS_TYPE": 0, "CLASSIFICATION_TYPE": "U", "NORAD_CAT_ID": 30863, "ELEMENT_SET_NO": 999, "REV_AT_EPOCH": 59846, "BSTAR": 0.0027378, "MEAN_MOTION_DOT": 1.406e-05, "MEAN_MOTION_DDOT": 0}, "tle": {"line1": "1 30863U 99025AWZ 25355.31032594  .00001406  00000+0  27378-2 0  9991", "line2": "2 30863  99.1205 184.3542 0877249 232.3747 314.6544 12.40539027598462"}}, "geometry": {"type": "Point", "coordinates": [8.732861581315536, 17.15492423526673]}}, {"type": "Feature", "properties": {"norad_id": 30867, "name": "FENGYUN 1C DEB", "group": "fengyun-1c-debris", "lat": 76.17815246194954, "lon": 117.37135847983957, "alt_km": 818.8300975307966, "timestamp": "2025-12-23T07:45:09.683519+00:00", "meta": {"OBJECT_NAME": "FENGYUN 1C DEB", "OBJECT_ID": "1999-025AXD", "EPOCH": "2025-12-20T17:11:38.053824", "MEAN_MOTION": 14.28078006, "ECCENTRICITY": 0.00538965, "INCLINATION": 97.8775, "RA_OF_ASC_NODE": 260.7732, "ARG_OF_PERICENTER": 332.7008, "MEAN_ANOMALY": 55.1129, "EPHEMERIS_TYPE": 0, "CLASSIFICATION_TYPE": "U", "NORAD_CAT_ID": 30867, "ELEMENT_SET_NO": 999, "REV_AT_EPOCH": 96651, "BSTAR": 0.001474724, "MEAN_MOTION_DOT": 3.685e-05, "MEAN_MOTION_DDOT": 0}, "tle": {"line1": "1 30867U 99025AXD 25354.71641266  .00003685  00000+0  14747-2 0  9997", "line2": "2 30867  97.8775 260.7732 0053896 332.7008  55.1129 14.28078006966516"}}, "geometry": {"type": "Point", "coordinates": [117.37135847983957, 76.17815246194954]}}, {"type": "Feature", "properties": {"norad_id": 30868, "name": "FENGYUN 1C DEB", "group": "fengyun-1c-debris", "lat": 12.303673456894353, "lon": -127.29261006585548, "alt_km": 953.278946354998, "timestamp": "2025-12-23T07:45:09.683530+00:00", "meta": {"OBJECT_NAME": "FENGYUN 1C DEB", "OBJECT_ID": "1999-025AXE", "EPOCH": "2025-12-22T10:25:16.106016", "MEAN_MOTION": 14.11124897, "ECCENTRICITY": 0.01356549, "INCLINATION": 98.2631, "RA_OF_ASC_NODE": 233.7053, "ARG_OF_PERICENTER": 184.9579, "MEAN_ANOMALY": 355.1983, "EPHEMERIS_TYPE": 0, "CLASSIFICATION_TYPE": "U", "NORAD_CAT_ID": 30868, "ELEMENT_SET_NO": 999, "REV_AT_EPOCH": 96847, "BSTAR": 0.00011800711, "MEAN_MOTION_DOT": 1.93e-06, "MEAN_MOTION_DDOT": 0}, "tle": {"line1": "1 30868U 99025AXE 25356.43421419  .00000193  00000+0  11801-3 0  9995", "line2": "2 30868  98.2631 233.7053 0135654 184.9579 355.1983 14.11124897968472"}}, "geometry": {"type": "Point", "coordinates": [-127.29261006585548, 12.303673456894353]}}, {"type": "Feature", "properties": {"norad_id": 30872, "name": "FENGYUN 1C DEB", "group": "fengyun-1c-debris", "lat": 0.03292633158664981, "lon": -129.54313555816424, "alt_km": 792.0777891242951, "timestamp": "2025-12-23T07:45:09.683540+00:00", "meta": {"OBJECT_NAME": "FENGYUN 1C DEB", "OBJECT_ID": "1999-025AXJ", "EPOCH": "2025-12-20T02:19:23.094048", "MEAN_MOTION": 14.3945895, "ECCENTRICITY": 0.00405296, "INCLINATION": 99.1926, "RA_OF_ASC_NODE": 46.9941, "ARG_OF_PERICENTER": 6.8734, "MEAN_ANOMALY": 23.8694, "EPHEMERIS_TYPE": 0, "CLASSIFICATION_TYPE": "U", "NORAD_CAT_ID": 30872, "ELEMENT_SET_NO": 999, "REV_AT_EPOCH": 97842, "BSTAR": 0.00056969079, "MEAN_MOTION_DOT": 1.742e-05, "MEAN_MOTION_DDOT": 0}, "tle": {"line1": "1 30872U 99025AXJ 25354.09679507  .00001742  00000+0  56969-3 0  9998", "line2": "2 30872  99.1926  46.9941 0040529   6.8734  23.8694 14.39458950978429"}}, "geometry": {"type": "Point", "coordinates": [-129.54313555816424, 0.03292633158664981]}}, {"type": "Feature", "properties": {"norad_id": 30873, "name": "FENGYUN 1C DEB", "group": "fengyun-1c-debris", "lat": 52.04677461631166, "lon": -13.868798229850062, "alt_km": 893.5746385402344, "timestamp": "2025-12-23T07:45:09.683551+00:00", "meta": {"OBJECT_NAME": "FENGYUN 1C DEB", "OBJECT_ID": "1999-025AXK", "EPOCH": "2025-12-22T23:02:25.899936", "MEAN_MOTION": 14.19147116, "ECCENTRICITY": 0.01076982, "INCLINATION": 98.6118, "RA_OF_ASC_NODE": 356.9818, "ARG_OF_PERICENTER": 258.9806, "MEAN_ANOMALY": 99.9241, "EPHEMERIS_TYPE": 0, "CLASSIFICATION_TYPE": "U", "NORAD_CAT_ID": 30873, "ELEMENT_SET_NO": 999, "REV_AT_EPOCH": 97337, "BSTAR": 0.00018915622, "MEAN_MOTION_DOT": 3.76e-06, "MEAN_MOTION_DDOT": 0}, "tle": {"line1": "1 30873U 99025AXK 25356.96002199  .00000376  00000+0  18916-3 0  9996", "line2": "2 30873  98.6118 356.9818 0107698 258.9806  99.9241 14.19147116973373"}}, "geometry": {"type": "Point", "coordinates": [-13.868798229850062, 52.04677461631166]}}, {"type": "Feature", "properties": {"norad_id": 30874, "name": "FENGYUN 1C DEB", "group": "fengyun-1c-debris", "lat": -12.031670292282962, "lon": 29.324447326867432, "alt_km": 803.0878819670443, "timestamp": "2025-12-23T07:45:09.683561+00:00", "meta": {"OBJECT_NAME": "FENGYUN 1C DEB", "OBJECT_ID": "1999-025AXL", "EPOCH": "2025-12-22T01:30:09.586944", "MEAN_MOTION": 14.19666851, "ECCENTRICITY": 0.00415313, "INCLINATION": 98.4897, "RA_OF_ASC_NODE": 26.2916, "ARG_OF_PERICENTER": 13.769, "MEAN_ANOMALY": 16.2635, "EPHEMERIS_TYPE": 0, "CLASSIFICATION_TYPE": "U", "NORAD_CAT_ID": 30874, "ELEMENT_SET_NO": 999, "REV_AT_EPOCH": 97153, "BSTAR": 0.00041180333, "MEAN_MOTION_DOT": 8.36e-06, "MEAN_MOTION_DDOT": 0}, "tle": {"line1": "1 30874U 99025AXL 25356.06261096  .00000836  00000+0  41180-3 0  9991", "line2": "2 30874  98.4897  26.2916 0041531  13.7690  16.2635 14.19666851971530"}}, "geometry": {"type": "Point", "coordinates": [29.324447326867432, -12.031670292282962]}}, {"type": "Feature", "properties": {"norad_id": 30876, "name": "FENGYUN 1C DEB", "group": "fengyun-1c-debris", "lat": -6.578960778677471, "lon": -16.97596597889392, "alt_km": 912.9651122265414, "timestamp": "2025-12-23T07:45:09.683571+00:00", "meta": {"OBJECT_NAME": "FENGYUN 1C DEB", "OBJECT_ID": "1999-025AXN", "EPOCH": "2025-12-22T17:11:55.244832", "MEAN_MOTION": 13.99181756, "ECCENTRICITY": 0.00662875, "INCLINATION": 98.8122, "RA_OF_ASC_NODE": 341.4156, "ARG_OF_PERICENTER": 249.5839, "MEAN_ANOMALY": 290.268, "EPHEMERIS_TYPE": 0, "CLASSIFICATION_TYPE": "U", "NORAD_CAT_ID": 30876, "ELEMENT_SET_NO": 999, "REV_AT_EPOCH": 95849, "BSTAR": 0.00048054915, "MEAN_MOTION_DOT": 6.67e-06, "MEAN_MOTION_DDOT": 0}, "tle": {"line1": "1 30876U 99025AXN 25356.71661163  .00000667  00000+0  48055-3 0  9994", "line2": "2 30876  98.8122 341.4156 0066287 249.5839 290.2680 13.99181756958491"}}, "geometry": {"type": "Point", "coordinates": [-16.97596597889392, -6.578960778677471]}}, {"type": "Feature", "properties": {"norad_id": 30878, "name": "FENGYUN 1C DEB", "group": "fengyun-1c-debris", "lat": -52.457186338564824, "lon": 166.98576133714644, "alt_km": 834.9493642364641, "timestamp": "2025-12-23T07:45:09.683581+00:00", "meta": {"OBJECT_NAME": "FENGYUN 1C DEB", "OBJECT_ID": "1999-025AXQ", "EPOCH": "2025-12-20T19:42:36.070848", "MEAN_MOTION": 14.11901976, "ECCENTRICITY": 0.00398876, "INCLINATION": 98.7204, "RA_OF_ASC_NODE": 356.0737, "ARG_OF_PERICENTER": 271.0719, "MEAN_ANOMALY": 213.36, "EPHEMERIS_TYPE": 0, "CLASSIFICATION_TYPE": "U", "NORAD_CAT_ID": 30878, "ELEMENT_SET_NO": 999, "REV_AT_EPOCH": 96481, "BSTAR": 0.0004377556, "MEAN_MOTION_DOT": 7.63e-06, "MEAN_MOTION_DDOT": 0}, "tle": {"line1": "1 30878U 99025AXQ 25354.82125082  .00000763  00000+0  43776-3 0  9993", "line2": "2 30878  98.7204 356.0737 0039887 271.0719 213.3600 14.11901976964813"}}, "geometry": {"type": "Point", "coordinates": [166.98576133714644, -52.457186338564824]}}]}